LIME                    
1 62648U 25009AR  26068.73906781  .00013254  00000+0  47723-3 0  9995
2 62648  97.3985 151.4831 0001635  35.9029 324.2320 15.28703313 63766
STARLINK-32943          
1 63023U 25032U   26068.17787933  .00024037  00000+0  87961-3 0  9992
2 63023  43.0042 338.7751 0003767 242.4510 117.5959 15.27596857 60541
